[{"OBJECT_NAME":"STARLINK-1273","OBJECT_ID":"2020-019H","EPOCH":"2026-03-09T12:49:52.137408","MEAN_MOTION":15.44237041,"ECCENTRICITY":0.00021479,"INCLINATION":53.0509,"RA_OF_ASC_NODE":155.5528,"ARG_OF_PERICENTER":0.3875,"MEAN_ANOMALY":359.7131,"EPHEMERIS_TYPE":0,"CLASSIFICATION_TYPE":"U","NORAD_CAT_ID":45367,"ELEMENT_SET_NO":999,"REV_AT_EPOCH":32987,"BSTAR":0.0015436718,"MEAN_MOTION_DOT":0.00072311,"MEAN_MOTION_DDOT":0},{"OBJECT_NAME":"STARLINK-30776","OBJECT_ID":"2023-162U","EPOCH":"2026-03-09T22:00:01.999584","MEAN_MOTION":15.2481564,"ECCENTRICITY":0.00014304,"INCLINATION":43.0008,"RA_OF_ASC_NODE":131.3181,"ARG_OF_PERICENTER":256.5401,"MEAN_ANOMALY":336.6047,"EPHEMERIS_TYPE":0,"CLASSIFICATION_TYPE":"U","NORAD_CAT_ID":58136,"ELEMENT_SET_NO":999,"REV_AT_EPOCH":568,"BSTAR":0.043191873,"MEAN_MOTION_DOT":0.01190361,"MEAN_MOTION_DDOT":0}]
